ORBCOMM FM24            
1 25478U 98053D   24224.64597010  .00004821  00000+0  16882-2 0  9998
2 25478  45.0081 294.8077 0001629 224.4098 135.6619 14.36092681352911
ORBCOMM FM25            
1 25479U 98053E   24224.89173898  .00005748  00000+0  20037-2 0  9996
2 25479  45.0071 291.8962 0003199 175.6337 184.4539 14.36083791353240
ORBCOMM FM26            
1 25480U 98053F   24224.86680191  .00005183  00000+0  18341-2 0  9992
2 25480  45.0065 286.5483 0005771 181.0669 179.0167 14.35458986353171
ORBCOMM FM27            
1 25481U 98053G   24224.88064705  .00004971  00000+0  17400-2 0  9991
2 25481  45.0054 292.2089 0002670 259.7224 100.3323 14.36068830353178
ORBCOMM FM28            
1 25482U 98053H   24224.70069782  .00004454  00000+0  15518-2 0  9997
2 25482  45.0040 231.2245 0004064 223.5749 136.4778 14.36460549353820
ORBCOMM FM30            
1 25980U 99065A   24224.95919678  .00004899  00000+0  17317-2 0  9991
2 25980  45.0308 111.7319 0005692 264.7287  95.2912 14.35594249289987
ORBCOMM FM31            
1 25981U 99065B   24224.92511291  .00004772  00000+0  16889-2 0  9991
2 25981  45.0222 105.5218 0003228 294.2445  65.8065 14.35582133289531
ORBCOMM FM32            
1 25982U 99065C   24224.97157608  .00005047  00000+0  18185-2 0  9992
2 25982  45.0148 119.7680 0005611 294.0347  65.9912 14.34593166290166
